{
    "links": {
        "self": "http://www.neowsapp.com/rest/v1/neo/54075990?api_key=iIulBulltgU6a56xZRHN4H3l9WmuAYTsLGpBGhQ2"
    },
    "id": "54075990",
    "neo_reference_id": "54075990",
    "name": "(2020 US3)",
    "designation": "2020 US3",
    "nasa_jpl_url": "http://ssd.jpl.nasa.gov/sbdb.cgi?sstr=54075990",
    "absolute_magnitude_h": 26.051,
    "estimated_diameter": {
        "kilometers": {
            "estimated_diameter_min": 0.0163815494,
            "estimated_diameter_max": 0.0366302581
        },
        "meters": {
            "estimated_diameter_min": 16.3815494298,
            "estimated_diameter_max": 36.6302581019
        },
        "miles": {
            "estimated_diameter_min": 0.0101790198,
            "estimated_diameter_max": 0.0227609801
        },
        "feet": {
            "estimated_diameter_min": 53.7452426314,
            "estimated_diameter_max": 120.178015991
        }
    },
    "is_potentially_hazardous_asteroid": false,
    "close_approach_data": [
        {
            "close_approach_date": "2017-10-13",
            "close_approach_date_full": "2017-Oct-13 02:31",
            "epoch_date_close_approach": 1507861860000,
            "relative_velocity": {
                "kilometers_per_second": "8.6702714253",
                "kilometers_per_hour": "31212.9771311887",
                "miles_per_hour": "19394.5301513211"
            },
            "miss_distance": {
                "astronomical": "0.1968771547",
                "lunar": "76.5852131783",
                "kilometers": "29452402.994780489",
                "miles": "18300874.5981251882"
            },
            "orbiting_body": "Earth"
        },
        {
            "close_approach_date": "2020-10-20",
            "close_approach_date_full": "2020-Oct-20 15:06",
            "epoch_date_close_approach": 1603206360000,
            "relative_velocity": {
                "kilometers_per_second": "8.7933016223",
                "kilometers_per_hour": "31655.8858402971",
                "miles_per_hour": "19669.7363989335"
            },
            "miss_distance": {
                "astronomical": "0.0566012034",
                "lunar": "22.0178681226",
                "kilometers": "8467419.468076758",
                "miles": "5261410.4826169404"
            },
            "orbiting_body": "Earth"
        },
        {
            "close_approach_date": "2023-10-28",
            "close_approach_date_full": "2023-Oct-28 20:38",
            "epoch_date_close_approach": 1698525480000,
            "relative_velocity": {
                "kilometers_per_second": "11.7085960413",
                "kilometers_per_hour": "42150.9457485187",
                "miles_per_hour": "26190.9584846838"
            },
            "miss_distance": {
                "astronomical": "0.1950302094",
                "lunar": "75.8667514566",
                "kilometers": "29176103.911893978",
                "miles": "18129190.3091257764"
            },
            "orbiting_body": "Earth"
        },
        {
            "close_approach_date": "2098-12-18",
            "close_approach_date_full": "2098-Dec-18 01:28",
            "epoch_date_close_approach": 4069704480000,
            "relative_velocity": {
                "kilometers_per_second": "5.5494090434",
                "kilometers_per_hour": "19977.8725562415",
                "miles_per_hour": "12413.4730891824"
            },
            "miss_distance": {
                "astronomical": "0.0611244514",
                "lunar": "23.7774115946",
                "kilometers": "9144087.734358518",
                "miles": "5681872.6461948284"
            },
            "orbiting_body": "Mars"
        }
    ],
    "orbital_data": {
        "orbit_id": "1",
        "orbit_determination_date": "2020-10-22 09:03:50",
        "first_observation_date": "2020-10-20",
        "last_observation_date": "2020-10-22",
        "data_arc_in_days": 2,
        "observations_used": 20,
        "orbit_uncertainty": "8",
        "minimum_orbit_intersection": ".0565677",
        "jupiter_tisserand_invariant": "4.894",
        "epoch_osculation": "2459143.5",
        "eccentricity": ".2171753052002496",
        "semi_major_axis": "1.318936864327024",
        "inclination": "15.14351331723345",
        "ascending_node_longitude": "31.43087514930224",
        "orbital_period": "553.2665797773838",
        "perihelion_distance": "1.032496348276942",
        "perihelion_argument": "331.7671118172701",
        "aphelion_distance": "1.605377380377105",
        "perihelion_time": "2459119.509717429937",
        "mean_anomaly": "15.61001882437527",
        "mean_motion": ".6506809071042248",
        "equinox": "J2000",
        "orbit_class": {
            "orbit_class_type": "AMO",
            "orbit_class_description": "Near-Earth asteroid orbits similar to that of 1221 Amor",
            "orbit_class_range": "1.017 AU < q (perihelion) < 1.3 AU"
        }
    },
    "is_sentry_object": false
}